ONEWEB-0102             
1 47258U 20100A   24344.58563957 -.00000369  00000+0 -10619-2 0  9992
2 47258  87.8883 101.1224 0001469 108.4811 251.6477 13.12443436191985
ONEWEB-0109             
1 47259U 20100B   24344.74620154 -.00000371  00000+0 -10674-2 0  9998
2 47259  87.8883 101.0569 0001442 106.6030 253.5257 13.12441337191830
ONEWEB-0110             
1 47260U 20100C   24344.77218408  .00000375  00000+0  10077-2 0  9997
2 47260  87.8877 101.0473 0001422 101.8608 258.2680 13.12444675192005
ONEWEB-0111             
1 47261U 20100D   24344.72675480 -.00000083  00000+0 -26476-3 0  9999
2 47261  87.8881 101.0612 0001476 105.0938 255.0353 13.12441955191837
ONEWEB-0114             
1 47262U 20100E   24344.60509498 -.00000139  00000+0 -42090-3 0  9994
2 47262  87.8876 101.0935 0001491 115.7525 244.3758 13.12445277191771
ONEWEB-0117             
1 47263U 20100F   24344.74945327 -.00000459  00000+0 -13117-2 0  9997
2 47263  87.8885 101.0476 0001559 101.6647 258.4657 13.12441737191801
ONEWEB-0118             
1 47264U 20100G   24344.62942111  .00000503  00000+0  13615-2 0  9994
2 47264  87.8879 101.0742 0001778 113.8209 246.3106 13.12442568191980
ONEWEB-0119             
1 47265U 20100H   24344.58077623 -.00000245  00000+0 -71529-3 0  9991
2 47265  87.8883 101.1229 0001482 103.1221 257.0073 13.12443425191957
